NORAD_CAT_ID,OBJECT_NAME,OBJECT_TYPE,EPOCH,MEAN_MOTION,ECCENTRICITY,INCLINATION,RA_OF_ASC_NODE,ARG_OF_PERICENTER,MEAN_ANOMALY,BSTAR,MEAN_MOTION_DOT,MEAN_MOTION_DDOT,TLE_LINE0,TLE_LINE1,TLE_LINE2,SEMIMAJOR_AXIS,PERIOD,APOGEE,PERIGEE,DECAYED
49451.0,STARLINK-3125,PAYLOAD,2022-12-13 02:17:50,15.088289199999998,0.0003469,53.2169,128.0038,53.7579,306.3733,-4.2207e-06,-3.56e-06,0.0,0 STARLINK-3125,1 49451U 21104AV  22347.09572281 -.00000356  00000-0 -42207-5 0  9999,2 49451  53.2169 128.0038 0003469  53.7579 306.3733 15.08828920 61321,6917.9140000000025,95.438,542.179,537.379,0.0
49451.0,STARLINK-3125,PAYLOAD,2022-12-13 08:39:23,15.08829459,0.0003489,53.2166,126.814,55.2178,304.9142,-4.5756e-06,-3.62e-06,0.0,0 STARLINK-3125,1 49451U 21104AV  22347.36068422 -.00000362  00000-0 -45756-5 0  9995,2 49451  53.2166 126.8140 0003489  55.2178 304.9142 15.08829459 60282,6917.913000000001,95.438,542.191,537.364,0.0
49451.0,STARLINK-3125,PAYLOAD,2022-12-13 16:36:18,15.08830285,0.0003502,53.2166,125.3273,55.6549,304.4774,-1.4438e-06,-3.12e-06,0.0,0 STARLINK-3125,1 49451U 21104AV  22347.69188550 -.00000312  00000-0 -14438-5 0  9994,2 49451  53.2166 125.3273 0003502  55.6549 304.4774 15.08830285 60336,6917.91,95.438,542.198,537.352,0.0
49451.0,STARLINK-3125,PAYLOAD,2022-12-14 08:30:09,15.08841285,0.0003335,53.2177,122.3537,55.0782,305.0523,0.00011721,1.577e-05,0.0,0 STARLINK-3125,1 49451U 21104AV  22348.35427725  .00001577  00000-0  11721-3 0  9990,2 49451  53.2177 122.3537 0003335  55.0782 305.0523 15.08841285 61517,6917.876,95.437,542.049,537.434,0.0
49451.0,STARLINK-3125,PAYLOAD,2022-12-14 16:27:05,15.08838468,0.0003083,53.2148,120.8664,55.621,304.5073,0.0001426,1.982e-05,0.0,0 STARLINK-3125,1 49451U 21104AV  22348.68547780  .00001982  00000-0  14260-3 0  9991,2 49451  53.2148 120.8664 0003083  55.6210 304.5073 15.08838468 60489,6917.885,95.438,541.883,537.617,0.0
49451.0,STARLINK-3125,PAYLOAD,2022-12-15 13:07:06,15.08837884,0.0003178,53.2161,117.0004,54.8069,305.322,0.00015318,2.15e-05,0.0,0 STARLINK-3125,1 49451U 21104AV  22349.54660045  .00002150  00000-0  15318-3 0  9990,2 49451  53.2161 117.0004 0003178  54.8069 305.3220 15.08837884 60617,6917.887,95.438,541.95,537.553,0.0
49451.0,STARLINK-3125,PAYLOAD,2022-12-15 14:42:29,15.08840653,0.0003048,53.2164,116.7029,49.4555,310.6702,0.00012486,1.699e-05,0.0,0 STARLINK-3125,1 49451U 21104AV  22349.61283949  .00001699  00000-0  12486-3 0  9992,2 49451  53.2164 116.7029 0003048  49.4555 310.6702 15.08840653 61702,6917.878000000002,95.438,541.852,537.635,0.0
49451.0,STARLINK-3125,PAYLOAD,2022-12-15 17:53:16,15.08829734,0.0003288,53.2166,116.1087,57.3397,302.7912,2.9217e-05,1.76e-06,0.0,0 STARLINK-3125,1 49451U 21104AV  22349.74532940  .00000176  00000-0  29217-4 0  9994,2 49451  53.2166 116.1087 0003288  57.3397 302.7912 15.08829734 60644,6917.9119999999975,95.438,542.0509999999998,537.502,0.0
49451.0,STARLINK-3125,PAYLOAD,2022-12-16 14:33:16,15.08846988,0.0003025,53.2162,112.2441,53.5753,306.5518,4.768e-05,4.7e-06,0.0,0 STARLINK-3125,1 49451U 21104AV  22350.60643767  .00000470  00000-0  47680-4 0  9992,2 49451  53.2162 112.2441 0003025  53.5753 306.5518 15.08846988 61852,6917.859,95.437,541.817,537.631,0.0
49451.0,STARLINK-3125,PAYLOAD,2022-12-16 17:44:02,15.08845773,0.0003226,53.2172,111.6511,46.1941,313.9317,3.9396e-05,3.38e-06,0.0,0 STARLINK-3125,1 49451U 21104AV  22350.73891919  .00000338  00000-0  39396-4 0  9998,2 49451  53.2172 111.6511 0003226  46.1941 313.9317 15.08845773 60796,6917.863,95.437,541.9590000000002,537.496,0.0
49451.0,STARLINK-3125,PAYLOAD,2022-12-17 11:13:17,15.08841053,0.0002966,53.2181,108.3776,54.2654,305.8614,3.3715e-05,2.48e-06,0.0,0 STARLINK-3125,1 49451U 21104AV  22351.46756049  .00000248  00000-0  33715-4 0  9992,2 49451  53.2181 108.3776 0002966  54.2654 305.8614 15.08841053 60903,6917.877,95.437,541.794,537.69,0.0
49451.0,STARLINK-3125,PAYLOAD,2022-12-17 14:24:03,15.08839036,0.000299,53.2183,107.7833,53.3445,306.7822,1.2705999999999997e-05,-8.6e-07,0.0,0 STARLINK-3125,1 49451U 21104AV  22351.60004228 -.00000086  00000-0  12706-4 0  9991,2 49451  53.2183 107.7833 0002990  53.3445 306.7822 15.08839036 62009,6917.8830000000025,95.438,541.817,537.68,0.0
49451.0,STARLINK-3125,PAYLOAD,2022-12-17 19:10:12,15.0883968,0.0002659,53.2176,106.8907,55.8403,304.2841,4.1775e-05,3.76e-06,0.0,0 STARLINK-3125,1 49451U 21104AV  22351.79876005  .00000376  00000-0  41775-4 0  9990,2 49451  53.2176 106.8907 0002659  55.8403 304.2841 15.08839680 60957,6917.880999999999,95.438,541.586,537.9069999999998,0.0
49451.0,STARLINK-3125,PAYLOAD,2022-12-18 14:14:52,15.08828524,0.0003022,53.2166,103.3236,54.94,305.1876,-4.2561e-05,-9.66e-06,0.0,0 STARLINK-3125,1 49451U 21104AV  22352.59365741 -.00000966  00000-0 -42561-4 0  9990,2 49451  53.2166 103.3236 0003022  54.9400 305.1876 15.08828524 62152,6917.915,95.438,541.871,537.69,0.0
49451.0,STARLINK-3125,PAYLOAD,2022-12-18 19:01:01,15.08834779,0.000288,53.2174,102.4297,54.1349,305.991,-5.9673e-05,-1.238e-05,0.0,0 STARLINK-3125,1 49451U 21104AV  22352.79237459 -.00001238  00000-0 -59673-4 0  9991,2 49451  53.2174 102.4297 0002880  54.1349 305.9910 15.08834779 61103,6917.896,95.438,541.754,537.769,0.0
49451.0,STARLINK-3125,PAYLOAD,2022-12-19 18:51:46,15.08852161,0.0002975,53.2171,97.97,53.4726,306.654,0.00021955,3.209e-05,0.0,0 STARLINK-3125,1 49451U 21104AV  22353.78595839  .00003209  00000-0  21955-3 0  9999,2 49451  53.2171  97.9700 0002975  53.4726 306.6540 15.08852161 61251,6917.843000000003,95.437,541.766,537.65,0.0
49451.0,STARLINK-3125,PAYLOAD,2022-12-19 23:37:58,15.08825362,0.0002638,53.2174,97.0787,53.8615,306.2621,3.0957e-06,-2.39e-06,0.0,0 STARLINK-3125,1 49451U 21104AV  22353.98470034 -.00000239  00000-0  30957-5 0  9995,2 49451  53.2174  97.0787 0002638  53.8615 306.2621 15.08825362 62369,6917.925,95.438,541.615,537.965,0.0
49451.0,STARLINK-3125,PAYLOAD,2022-12-20 13:56:25,15.08842335,0.0002886,53.2172,94.402,56.8529,303.274,0.00024143,3.556e-05,0.0,0 STARLINK-3125,1 49451U 21104AV  22354.58085222  .00003556  00000-0  24143-3 0  9995,2 49451  53.2172  94.4020 0002886  56.8529 303.2740 15.08842335 62458,6917.873000000001,95.437,541.735,537.742,0.0
49451.0,STARLINK-3125,PAYLOAD,2022-12-21 05:50:17,15.08835707,0.0002741,53.2161,91.4321,56.5743,303.5511,-5.6454e-05,-1.187e-05,0.0,0 STARLINK-3125,1 49451U 21104AV  22355.24325705 -.00001187  00000-0 -56454-4 0  9993,2 49451  53.2161  91.4321 0002741  56.5743 303.5511 15.08835707 62557,6917.894,95.438,541.655,537.862,0.0
49451.0,STARLINK-3125,PAYLOAD,2022-12-21 13:47:13,15.08837012,0.0002605,53.2159,89.9414,49.0115,311.1103,-3.7338e-05,-8.83e-06,0.0,0 STARLINK-3125,1 49451U 21104AV  22355.57445858 -.00000883  00000-0 -37338-4 0  9993,2 49451  53.2159  89.9414 0002605  49.0115 311.1103 15.08837012 61527,6917.89,95.438,541.557,537.952,0.0
49451.0,STARLINK-3125,PAYLOAD,2022-12-21 23:19:31,15.08847527,0.0002719,53.2157,88.1574,60.0174,300.1088,0.000232,3.407e-05,0.0,0 STARLINK-3125,1 49451U 21104AV  22355.97189533  .00003407  00000-0  23200-3 0  9997,2 49451  53.2157  88.1574 0002719  60.0174 300.1088 15.08847527 62665,6917.857,95.437,541.6030000000002,537.841,0.0
49451.0,STARLINK-3125,PAYLOAD,2022-12-22 12:02:36,15.08848585,0.000242,53.2142,85.7768,62.9436,297.1803,0.00034832,5.261e-05,0.0,0 STARLINK-3125,1 49451U 21104AV  22356.50181396  .00005261  00000-0  34832-3 0  9999,2 49451  53.2142  85.7768 0002420  62.9436 297.1803 15.08848585 61662,6917.854,95.437,541.393,538.045,0.0
49451.0,STARLINK-3125,PAYLOAD,2022-12-22 18:24:09,15.08844807,0.0002792,53.2152,84.5903,56.3638,303.762,0.00036075,5.459e-05,0.0,0 STARLINK-3125,1 49451U 21104AV  22356.76677605  .00005459  00000-0  36075-3 0  9990,2 49451  53.2152  84.5903 0002792  56.3638 303.7620 15.08844807 62782,6917.866,95.437,541.6619999999998,537.799,0.0
49451.0,STARLINK-3125,PAYLOAD,2022-12-23 05:31:51,15.08839816,0.0002608,53.2145,82.5072,61.5596,298.5659,7.017300000000001e-05,8.29e-06,0.0,0 STARLINK-3125,1 49451U 21104AV  22357.23045764  .00000829  00000-0  70173-4 0  9992,2 49451  53.2145  82.5072 0002608  61.5596 298.5659 15.08839816 62851,6917.880999999999,95.438,541.55,537.942,0.0
49451.0,STARLINK-3125,PAYLOAD,2022-12-23 11:53:24,15.08834785,0.0002326,53.2144,81.3168,64.5364,295.5868,-4.1273e-06,-3.54e-06,0.0,0 STARLINK-3125,1 49451U 21104AV  22357.49541902 -.00000354  00000-0 -41273-5 0  9990,2 49451  53.2144  81.3168 0002326  64.5364 295.5868 15.08834785 61810,6917.896,95.438,541.37,538.1519999999998,0.0
49451.0,STARLINK-3125,PAYLOAD,2022-12-23 18:14:56,15.08836397,0.0002321,53.2147,80.1285,61.5718,298.5508,0.00046543,7.126e-05,0.0,0 STARLINK-3125,1 49451U 21104AV  22357.76038101  .00007126  00000-0  46543-3 0  9997,2 49451  53.2147  80.1285 0002321  61.5718 298.5508 15.08836397 61854,6917.891,95.438,541.362,538.151,0.0
49451.0,STARLINK-3125,PAYLOAD,2022-12-24 11:44:11,15.08856049,0.0002353,53.2148,76.8576,60.8687,299.2541,0.00079994,0.00012472,0.0,0 STARLINK-3125,1 49451U 21104AV  22358.48901688  .00012472  00000-0  79994-3 0  9992,2 49451  53.2148  76.8576 0002353  60.8687 299.2541 15.08856049 63046,6917.831,95.437,541.3240000000002,538.069,0.0
49451.0,STARLINK-3125,PAYLOAD,2022-12-25 05:13:25,15.08849624,0.0002396,53.2148,73.5864,61.5704,298.5529,0.00018526,2.662e-05,0.0,0 STARLINK-3125,1 49451U 21104AV  22359.21765342  .00002662  00000-0  18526-3 0  9993,2 49451  53.2148  73.5864 0002396  61.5704 298.5529 15.08849624 63156,6917.851,95.437,541.373,538.058,0.0
49451.0,STARLINK-3125,PAYLOAD,2022-12-25 11:34:57,15.08845131,0.0002771,53.2149,72.3969,66.491,293.6373,0.00011808,1.592e-05,0.0,0 STARLINK-3125,1 49451U 21104AV  22359.48261546  .00001592  00000-0  11808-3 0  9996,2 49451  53.2149  72.3969 0002771  66.4910 293.6373 15.08845131 62117,6917.865,95.437,541.6469999999998,537.813,0.0
